STARLINK-31936          
1 59875U 24098T   26068.53805881  .00000654  00000+0  33307-4 0  9991
2 59875  43.0038 246.5196 0001152 272.6607  87.4113 15.27575371102185
HERMES-3                
1 63835U 25052BR  26068.93751242  .00020316  00000+0  69958-3 0  9995
2 63835  97.3987 324.6131 0007993 112.9583 247.2502 15.30039785 54863
